start=new Date('2022-11-14T00:00:00.000Z').valueOf();
sats=[{"CLASSIFICATION_TYPE":"U","OBJECT_ID":"2021-036BG","MEAN_MOTION":"15.06405512","SITE":"AFETR","DECAY_DATE":null,"BSTAR":"0.00005006300000","TLE_LINE2":"2 48330  53.0549 142.0616 0001347  81.8222 278.2920 15.06405512 85376","NORAD_CAT_ID":"48330","TIME_SYSTEM":"UTC","MEAN_ELEMENT_THEORY":"SGP4","PERIAPSIS":"546.264","MEAN_MOTION_DDOT":"0.0000000000000","MEAN_MOTION_DOT":"0.00000464","PERIOD":"95.592","EPHEMERIS_TYPE":"0","SEMIMAJOR_AXIS":"6925.332","LAUNCH_DATE":"2021-04-29","INCLINATION":"53.0549","ECCENTRICITY":"0.00013470","APOAPSIS":"548.130","CENTER_NAME":"EARTH","ELEMENT_SET_NO":"999","REV_AT_EPOCH":"8537","GP_ID":"217690768","RA_OF_ASC_NODE":"142.0616","TLE_LINE1":"1 48330U 21036BG  22317.78883656  .00000464  00000-0  50063-4 0  9998","ARG_OF_PERICENTER":"81.8222","OBJECT_NAME":"STARLINK-2501","EPOCH":"2022-11-13T18:55:55.478784","MEAN_ANOMALY":"278.2920","OBJECT_TYPE":"PAYLOAD","RCS_SIZE":"LARGE","FILE":"3653957","REF_FRAME":"TEME","COUNTRY_CODE":"US"},{"MEAN_MOTION_DDOT":"0.0000000000000","PERIAPSIS":"546.016","MEAN_MOTION_DOT":"0.00001261","PERIOD":"95.592","EPHEMERIS_TYPE":"0","SEMIMAJOR_AXIS":"6925.348","LAUNCH_DATE":"2021-04-29","ECCENTRICITY":"0.00017290","INCLINATION":"53.0535","CLASSIFICATION_TYPE":"U","OBJECT_ID":"2021-036BH","SITE":"AFETR","MEAN_MOTION":"15.06400050","DECAY_DATE":null,"TLE_LINE2":"2 48331  53.0535 142.0762 0001729  61.2876 298.8287 15.06400050 85371","BSTAR":"0.00010355000000","MEAN_ELEMENT_THEORY":"SGP4","TIME_SYSTEM":"UTC","NORAD_CAT_ID":"48331","EPOCH":"2022-11-13T18:50:36.993696","OBJECT_NAME":"STARLINK-2514","RCS_SIZE":"LARGE","MEAN_ANOMALY":"298.8287","OBJECT_TYPE":"PAYLOAD","REF_FRAME":"TEME","FILE":"3653957","COUNTRY_CODE":"US","CENTER_NAME":"EARTH","APOAPSIS":"548.411","ELEMENT_SET_NO":"999","REV_AT_EPOCH":"8537","TLE_LINE1":"1 48331U 21036BH  22317.78515039  .00001261  00000-0  10355-3 0  9991","GP_ID":"217691517","RA_OF_ASC_NODE":"142.0762","ARG_OF_PERICENTER":"61.2876"},{"SITE":"AFETR","MEAN_MOTION":"15.06390020","OBJECT_ID":"2021-036BJ","CLASSIFICATION_TYPE":"U","MEAN_ELEMENT_THEORY":"SGP4","TIME_SYSTEM":"UTC","NORAD_CAT_ID":"48332","TLE_LINE2":"2 48332  53.0540 142.0610 0001466  85.9668 274.1489 15.06390020 85376","BSTAR":"0.00003639900000","DECAY_DATE":null,"PERIOD":"95.593","MEAN_MOTION_DOT":"0.00000261","MEAN_MOTION_DDOT":"0.0000000000000","PERIAPSIS":"546.229","ECCENTRICITY":"0.00014660","INCLINATION":"53.0540","SEMIMAJOR_AXIS":"6925.379","LAUNCH_DATE":"2021-04-29","EPHEMERIS_TYPE":"0","ELEMENT_SET_NO":"999","CENTER_NAME":"EARTH","APOAPSIS":"548.259","ARG_OF_PERICENTER":"85.9668","TLE_LINE1":"1 48332U 21036BJ  22317.78421869  .00000261  00000-0  36399-4 0  9995","GP_ID":"217692268","RA_OF_ASC_NODE":"142.0610","REV_AT_EPOCH":"8537","RCS_SIZE":"LARGE","OBJECT_TYPE":"PAYLOAD","MEAN_ANOMALY":"274.1489","EPOCH":"2022-11-13T18:49:16.494816","OBJECT_NAME":"STARLINK-2511","COUNTRY_CODE":"US","REF_FRAME":"TEME","FILE":"3653957"},{"CENTER_NAME":"EARTH","APOAPSIS":"548.366","ELEMENT_SET_NO":"999","REV_AT_EPOCH":"8537","TLE_LINE1":"1 48333U 21036BK  22317.77780715  .00003508  00000-0  25426-3 0  9998","GP_ID":"217692520","RA_OF_ASC_NODE":"142.1077","ARG_OF_PERICENTER":"61.4425","EPOCH":"2022-11-13T18:40:02.537760","OBJECT_NAME":"STARLINK-2518","RCS_SIZE":"LARGE","MEAN_ANOMALY":"298.6733","OBJECT_TYPE":"PAYLOAD","REF_FRAME":"TEME","FILE":"3653957","COUNTRY_CODE":"US","CLASSIFICATION_TYPE":"U","OBJECT_ID":"2021-036BK","SITE":"AFETR","MEAN_MOTION":"15.06403248","DECAY_DATE":null,"TLE_LINE2":"2 48333  53.0552 142.1077 0001679  61.4425 298.6733 15.06403248 85374","BSTAR":"0.00025426000000","MEAN_ELEMENT_THEORY":"SGP4","TIME_SYSTEM":"UTC","NORAD_CAT_ID":"48333","MEAN_MOTION_DDOT":"0.0000000000000","PERIAPSIS":"546.041","MEAN_MOTION_DOT":"0.00003508","PERIOD":"95.592","EPHEMERIS_TYPE":"0","LAUNCH_DATE":"2021-04-29","SEMIMAJOR_AXIS":"6925.339","ECCENTRICITY":"0.00016790","INCLINATION":"53.0552"},{"REV_AT_EPOCH":"8537","TLE_LINE1":"1 48334U 21036BL  22317.77410900  .00004063  00000-0  29142-3 0  9991","RA_OF_ASC_NODE":"142.1102","GP_ID":"217691268","ARG_OF_PERICENTER":"94.3071","CENTER_NAME":"EARTH","APOAPSIS":"548.125","ELEMENT_SET_NO":"999","REF_FRAME":"TEME","FILE":"3653957","COUNTRY_CODE":"US","EPOCH":"2022-11-13T18:34:43.017600","OBJECT_NAME":"STARLINK-2470","RCS_SIZE":"LARGE","MEAN_ANOMALY":"265.8073","OBJECT_TYPE":"PAYLOAD","DECAY_DATE":null,"TLE_LINE2":"2 48334  53.0534 142.1102 0001354  94.3071 265.8073 15.06408519 85375","BSTAR":"0.00029142000000","MEAN_ELEMENT_THEORY":"SGP4","TIME_SYSTEM":"UTC","NORAD_CAT_ID":"48334","CLASSIFICATION_TYPE":"U","OBJECT_ID":"2021-036BL","SITE":"AFETR","MEAN_MOTION":"15.06408519","EPHEMERIS_TYPE":"0","LAUNCH_DATE":"2021-04-29","SEMIMAJOR_AXIS":"6925.322","INCLINATION":"53.0534","ECCENTRICITY":"0.00013540","MEAN_MOTION_DDOT":"0.0000000000000","PERIAPSIS":"546.250","MEAN_MOTION_DOT":"0.00004063","PERIOD":"95.592"},{"OBJECT_NAME":"STARLINK-2441","EPOCH":"2022-11-13T18:29:23.599392","MEAN_ANOMALY":"274.3327","OBJECT_TYPE":"PAYLOAD","RCS_SIZE":"LARGE","FILE":"3653957","REF_FRAME":"TEME","COUNTRY_CODE":"US","APOAPSIS":"548.034","CENTER_NAME":"EARTH","ELEMENT_SET_NO":"999","REV_AT_EPOCH":"8537","GP_ID":"217691018","RA_OF_ASC_NODE":"142.1422","TLE_LINE1":"1 48335U 21036BM  22317.77041203 -.00000083  00000-0  13342-4 0  9993","ARG_OF_PERICENTER":"85.7799","PERIAPSIS":"546.365","MEAN_MOTION_DDOT":"0.0000000000000","MEAN_MOTION_DOT":"-0.00000083","PERIOD":"95.592","EPHEMERIS_TYPE":"0","LAUNCH_DATE":"2021-04-29","SEMIMAJOR_AXIS":"6925.334","INCLINATION":"53.0538","ECCENTRICITY":"0.00012050","CLASSIFICATION_TYPE":"U","OBJECT_ID":"2021-036BM","MEAN_MOTION":"15.06404594","SITE":"AFETR","DECAY_DATE":null,"BSTAR":"0.00001334200000","TLE_LINE2":"2 48335  53.0538 142.1422 0001205  85.7799 274.3327 15.06404594 85377","TIME_SYSTEM":"UTC","NORAD_CAT_ID":"48335","MEAN_ELEMENT_THEORY":"SGP4"},{"PERIOD":"95.592","PERIAPSIS":"546.272","MEAN_MOTION_DDOT":"0.0000000000000","MEAN_MOTION_DOT":"-0.00002150","LAUNCH_DATE":"2021-05-04","SEMIMAJOR_AXIS":"6925.360","ECCENTRICITY":"0.00013760","INCLINATION":"53.0552","EPHEMERIS_TYPE":"0","OBJECT_ID":"2021-038A","MEAN_MOTION":"15.06396388","SITE":"AFETR","CLASSIFICATION_TYPE":"U","BSTAR":"-0.00012550000000","TLE_LINE2":"2 48353  53.0552  43.3094 0001376  75.9941 284.1201 15.06396388 84919","TIME_SYSTEM":"UTC","NORAD_CAT_ID":"48353","MEAN_ELEMENT_THEORY":"SGP4","DECAY_DATE":null,"OBJECT_TYPE":"PAYLOAD","MEAN_ANOMALY":"284.1201","RCS_SIZE":"LARGE","OBJECT_NAME":"STARLINK-2613","EPOCH":"2022-11-13T12:15:11.536416","FILE":"3653373","REF_FRAME":"TEME","COUNTRY_CODE":"US","ELEMENT_SET_NO":"999","APOAPSIS":"548.178","CENTER_NAME":"EARTH","ARG_OF_PERICENTER":"75.9941","REV_AT_EPOCH":"8491","RA_OF_ASC_NODE":"43.3094","GP_ID":"217657484","TLE_LINE1":"1 48353U 21038A   22317.51055019 -.00002150  00000-0 -12550-3 0  9994"},{"OBJECT_TYPE":"PAYLOAD","MEAN_ANOMALY":"271.9088","RCS_SIZE":"LARGE","OBJECT_NAME":"STARLINK-2674","EPOCH":"2022-11-13T12:09:52.462944","COUNTRY_CODE":"US","FILE":"3653238","REF_FRAME":"TEME","ELEMENT_SET_NO":"999","APOAPSIS":"548.207","CENTER_NAME":"EARTH","ARG_OF_PERICENTER":"88.2066","RA_OF_ASC_NODE":"43.3249","GP_ID":"217625688","TLE_LINE1":"1 48354U 21038B   22317.50685721 -.00000504  00000-0 -14965-4 0  9997","REV_AT_EPOCH":"8432","PERIOD":"95.592","MEAN_MOTION_DOT":"-0.00000504","PERIAPSIS":"546.207","MEAN_MOTION_DDOT":"0.0000000000000","INCLINATION":"53.0535","ECCENTRICITY":"0.00014440","LAUNCH_DATE":"2021-05-04","SEMIMAJOR_AXIS":"6925.342","EPHEMERIS_TYPE":"0","MEAN_MOTION":"15.06402226","SITE":"AFETR","OBJECT_ID":"2021-038B","CLASSIFICATION_TYPE":"U","TIME_SYSTEM":"UTC","NORAD_CAT_ID":"48354","MEAN_ELEMENT_THEORY":"SGP4","BSTAR":"-0.00001496500000","TLE_LINE2":"2 48354  53.0535  43.3249 0001444  88.2066 271.9088 15.06402226 84325","DECAY_DATE":null},{"DECAY_DATE":null,"NORAD_CAT_ID":"48355","TIME_SYSTEM":"UTC","MEAN_ELEMENT_THEORY":"SGP4","BSTAR":"-0.00026738000000","TLE_LINE2":"2 48355  53.0562  42.7516 0001527  69.3625 290.7527 15.06394255 84340","CLASSIFICATION_TYPE":"U","MEAN_MOTION":"15.06394255","SITE":"AFETR","OBJECT_ID":"2021-038C","EPHEMERIS_TYPE":"0","INCLINATION":"53.0562","ECCENTRICITY":"0.00015270","LAUNCH_DATE":"2021-05-04","SEMIMAJOR_AXIS":"6925.366","MEAN_MOTION_DOT":"-0.00004261","PERIAPSIS":"546.174","MEAN_MOTION_DDOT":"0.0000000000000","PERIOD":"95.593","GP_ID":"217691270","RA_OF_ASC_NODE":"42.7516","TLE_LINE1":"1 48355U 21038C   22317.63587296 -.00004261  00000-0 -26738-3 0  9994","REV_AT_EPOCH":"8434","ARG_OF_PERICENTER":"69.3625","APOAPSIS":"548.289","CENTER_NAME":"EARTH","ELEMENT_SET_NO":"999","COUNTRY_CODE":"US","FILE":"3653957","REF_FRAME":"TEME","OBJECT_NAME":"STARLINK-2635","EPOCH":"2022-11-13T15:15:39.423744","MEAN_ANOMALY":"290.7527","OBJECT_TYPE":"PAYLOAD","RCS_SIZE":"LARGE"},{"COUNTRY_CODE":"US","REF_FRAME":"TEME","FILE":"3653957","EPOCH":"2022-11-13T13:34:48.378144","OBJECT_NAME":"STARLINK-2637","RCS_SIZE":"LARGE","MEAN_ANOMALY":"246.8561","OBJECT_TYPE":"PAYLOAD","TLE_LINE1":"1 48356U 21038D   22317.56583771 -.00009411  00000-0 -61387-3 0  9992","RA_OF_ASC_NODE":"43.0451","GP_ID":"217691020","REV_AT_EPOCH":"8433","ARG_OF_PERICENTER":"113.2563","CENTER_NAME":"EARTH","APOAPSIS":"548.121","ELEMENT_SET_NO":"999","EPHEMERIS_TYPE":"0","INCLINATION":"53.0560","ECCENTRICITY":"0.00012800","LAUNCH_DATE":"2021-05-04","SEMIMAJOR_AXIS":"6925.370","MEAN_MOTION_DOT":"-0.00009411","MEAN_MOTION_DDOT":"0.0000000000000","PERIAPSIS":"546.348","PERIOD":"95.593","DECAY_DATE":null,"MEAN_ELEMENT_THEORY":"SGP4","NORAD_CAT_ID":"48356","TIME_SYSTEM":"UTC","TLE_LINE2":"2 48356  53.0560  43.0451 0001280 113.2563 246.8561 15.06393107 84331","BSTAR":"-0.00061387000000","CLASSIFICATION_TYPE":"U","SITE":"AFETR","MEAN_MOTION":"15.06393107","OBJECT_ID":"2021-038D"}];
